{
  "type": "FeatureCollection",
  "features": [
    {
      "type": "Feature",
      "properties": {
        "norad_id": 38091,
        "name": "BEIDOU-2 G5 (C05)",
        "group": "gnss",
        "lat": 1.6248658358294443,
        "lon": 101.36449954382338,
        "alt_km": 35837.86434979122,
        "timestamp": "2025-12-22T20:43:46.091314+00:00",
        "meta_object_name": "BEIDOU-2 G5 (C05)",
        "meta_object_id": "2012-008A",
        "meta_epoch": "2025-12-19T16:03:31.750272",
        "meta_mean_motion": 1.00268606,
        "meta_eccentricity": 0.0012969,
        "meta_inclination": 3.1258,
        "meta_ra_of_asc_node": 70.6861,
        "meta_arg_of_pericenter": 231.3522,
        "meta_mean_anomaly": 86.1393,
        "meta_ephemeris_type": 0,
        "meta_classification_type": "U",
        "meta_norad_cat_id": 38091,
        "meta_element_set_no": 999,
        "meta_rev_at_epoch": 5056,
        "meta_bstar": 0,
        "meta_mean_motion_dot": 7.9e-07,
        "meta_mean_motion_ddot": 0,
        "tle_line1": "1 38091U 12008A   25353.66911748  .00000079  00000+0  00000+0 0  9996",
        "tle_line2": "2 38091   3.1258  70.6861 0012969 231.3522  86.1393  1.00268606 50560"
      },
      "geometry": {
        "type": "Point",
        "coordinates": [
          101.36449954382338,
          1.6248658358294443
        ]
      }
    },
    {
      "type": "Feature",
      "properties": {
        "norad_id": 38250,
        "name": "BEIDOU-2 M3 (C11)",
        "group": "gnss",
        "lat": -34.886733529338294,
        "lon": 158.94162942056772,
        "alt_km": 21490.746400172775,
        "timestamp": "2025-12-22T20:43:46.091326+00:00",
        "meta_object_name": "BEIDOU-2 M3 (C11)",
        "meta_object_id": "2012-018A",
        "meta_epoch": "2025-12-21T23:49:10.133760",
        "meta_mean_motion": 1.86230181,
        "meta_eccentricity": 0.00240993,
        "meta_inclination": 55.9124,
        "meta_ra_of_asc_node": 310.8468,
        "meta_arg_of_pericenter": 275.3188,
        "meta_mean_anomaly": 84.4018,
        "meta_ephemeris_type": 0,
        "meta_classification_type": "U",
        "meta_norad_cat_id": 38250,
        "meta_element_set_no": 999,
        "meta_rev_at_epoch": 9264,
        "meta_bstar": 0,
        "meta_mean_motion_dot": -6e-07,
        "meta_mean_motion_ddot": 0,
        "tle_line1": "1 38250U 12018A   25355.99247840 -.00000060  00000+0  00000+0 0  9998",
        "tle_line2": "2 38250  55.9124 310.8468 0024099 275.3188  84.4018  1.86230181 92640"
      },
      "geometry": {
        "type": "Point",
        "coordinates": [
          158.94162942056772,
          -34.886733529338294
        ]
      }
    },
    {
      "type": "Feature",
      "properties": {
        "norad_id": 38251,
        "name": "BEIDOU-2 M4 (C12)",
        "group": "gnss",
        "lat": -55.819364113920834,
        "lon": -140.88376023665253,
        "alt_km": 21492.12658255516,
        "timestamp": "2025-12-22T20:43:46.091337+00:00",
        "meta_object_name": "BEIDOU-2 M4 (C12)",
        "meta_object_id": "2012-018B",
        "meta_epoch": "2025-12-21T22:11:20.549760",
        "meta_mean_motion": 1.86229896,
        "meta_eccentricity": 0.00152556,
        "meta_inclination": 55.8135,
        "meta_ra_of_asc_node": 310.0771,
        "meta_arg_of_pericenter": 279.1681,
        "meta_mean_anomaly": 80.6551,
        "meta_ephemeris_type": 0,
        "meta_classification_type": "U",
        "meta_norad_cat_id": 38251,
        "meta_element_set_no": 999,
        "meta_rev_at_epoch": 9264,
        "meta_bstar": 0,
        "meta_mean_motion_dot": -6e-07,
        "meta_mean_motion_ddot": 0,
        "tle_line1": "1 38251U 12018B   25355.92454340 -.00000060  00000+0  00000+0 0  9997",
        "tle_line2": "2 38251  55.8135 310.0771 0015255 279.1681  80.6551  1.86229896 92646"
      },
      "geometry": {
        "type": "Point",
        "coordinates": [
          -140.88376023665253,
          -55.819364113920834
        ]
      }
    },
    {
      "type": "Feature",
      "properties": {
        "norad_id": 38652,
        "name": "SES-5 (EGNOS/PRN 136)",
        "group": "gnss",
        "lat": 0.06941900945730493,
        "lon": 47.592577924112646,
        "alt_km": 35791.467328845996,
        "timestamp": "2025-12-22T20:43:46.091349+00:00",
        "meta_object_name": "SES-5 (EGNOS/PRN 136)",
        "meta_object_id": "2012-036A",
        "meta_epoch": "2025-12-22T03:54:38.524896",
        "meta_mean_motion": 1.00271214,
        "meta_eccentricity": 0.00018162,
        "meta_inclination": 0.059,
        "meta_ra_of_asc_node": 304.6524,
        "meta_arg_of_pericenter": 329.614,
        "meta_mean_anomaly": 240.347,
        "meta_ephemeris_type": 0,
        "meta_classification_type": "U",
        "meta_norad_cat_id": 38652,
        "meta_element_set_no": 999,
        "meta_rev_at_epoch": 4268,
        "meta_bstar": 0,
        "meta_mean_motion_dot": 5.6e-07,
        "meta_mean_motion_ddot": 0,
        "tle_line1": "1 38652U 12036A   25356.16294589  .00000056  00000+0  00000+0 0  9990",
        "tle_line2": "2 38652   0.0590 304.6524 0001816 329.6140 240.3470  1.00271214 42683"
      },
      "geometry": {
        "type": "Point",
        "coordinates": [
          47.592577924112646,
          0.06941900945730493
        ]
      }
    },
    {
      "type": "Feature",
      "properties": {
        "norad_id": 38775,
        "name": "BEIDOU-2 M6 (C14)",
        "group": "gnss",
        "lat": 54.05221902879099,
        "lon": -177.59657981173126,
        "alt_km": 21537.811034046328,
        "timestamp": "2025-12-22T20:43:46.091361+00:00",
        "meta_object_name": "BEIDOU-2 M6 (C14)",
        "meta_object_id": "2012-050B",
        "meta_epoch": "2025-12-22T04:08:12.945984",
        "meta_mean_motion": 1.86230889,
        "meta_eccentricity": 0.00114149,
        "meta_inclination": 56.3862,
        "meta_ra_of_asc_node": 68.7545,
        "meta_arg_of_pericenter": 343.263,
        "meta_mean_anomaly": 16.7493,
        "meta_ephemeris_type": 0,
        "meta_classification_type": "U",
        "meta_norad_cat_id": 38775,
        "meta_element_set_no": 999,
        "meta_rev_at_epoch": 9001,
        "meta_bstar": 0,
        "meta_mean_motion_dot": -3e-07,
        "meta_mean_motion_ddot": 0,
        "tle_line1": "1 38775U 12050B   25356.17237206 -.00000030  00000+0  00000+0 0  9999",
        "tle_line2": "2 38775  56.3862  68.7545 0011414 343.2630  16.7493  1.86230889 90014"
      },
      "geometry": {
        "type": "Point",
        "coordinates": [
          -177.59657981173126,
          54.05221902879099
        ]
      }
    },
    {
      "type": "Feature",
      "properties": {
        "norad_id": 38779,
        "name": "GSAT-10 (GAGAN/PRN 128)",
        "group": "gnss",
        "lat": -0.01943210438036701,
        "lon": 125.63106581325435,
        "alt_km": 35776.16069405494,
        "timestamp": "2025-12-22T20:43:46.091372+00:00",
        "meta_object_name": "GSAT-10 (GAGAN/PRN 128)",
        "meta_object_id": "2012-051B",
        "meta_epoch": "2025-12-22T08:25:27.861024",
        "meta_mean_motion": 1.00271786,
        "meta_eccentricity": 0.0002357,
        "meta_inclination": 0.0688,
        "meta_ra_of_asc_node": 263.6494,
        "meta_arg_of_pericenter": 219.1334,
        "meta_mean_anomaly": 177.7726,
        "meta_ephemeris_type": 0,
        "meta_classification_type": "U",
        "meta_norad_cat_id": 38779,
        "meta_element_set_no": 999,
        "meta_rev_at_epoch": 4832,
        "meta_bstar": 0,
        "meta_mean_motion_dot": -1.43e-06,
        "meta_mean_motion_ddot": 0,
        "tle_line1": "1 38779U 12051B   25356.35101691 -.00000143  00000+0  00000+0 0  9997",
        "tle_line2": "2 38779   0.0688 263.6494 0002357 219.1334 177.7726  1.00271786 48328"
      },
      "geometry": {
        "type": "Point",
        "coordinates": [
          125.63106581325435,
          -0.01943210438036701
        ]
      }
    },
    {
      "type": "Feature",
      "properties": {
        "norad_id": 38833,
        "name": "GPS BIIF-3  (PRN 24)",
        "group": "gnss",
        "lat": 24.02469486886181,
        "lon": 170.04011638423927,
        "alt_km": 19788.205260246505,
        "timestamp": "2025-12-22T20:43:46.091388+00:00",
        "meta_object_name": "GPS BIIF-3  (PRN 24)",
        "meta_object_id": "2012-053A",
        "meta_epoch": "2025-12-22T07:46:34.286880",
        "meta_mean_motion": 2.0056507,
        "meta_eccentricity": 0.0176029,
        "meta_inclination": 53.5595,
        "meta_ra_of_asc_node": 150.8462,
        "meta_arg_of_pericenter": 64.1364,
        "meta_mean_anomaly": 297.6424,
        "meta_ephemeris_type": 0,
        "meta_classification_type": "U",
        "meta_norad_cat_id": 38833,
        "meta_element_set_no": 999,
        "meta_rev_at_epoch": 9589,
        "meta_bstar": 0,
        "meta_mean_motion_dot": 6.6e-07,
        "meta_mean_motion_ddot": 0,
        "tle_line1": "1 38833U 12053A   25356.32400795  .00000066  00000+0  00000+0 0  9997",
        "tle_line2": "2 38833  53.5595 150.8462 0176029  64.1364 297.6424  2.00565070 95894"
      },
      "geometry": {
        "type": "Point",
        "coordinates": [
          170.04011638423927,
          24.02469486886181
        ]
      }
    }
  ]
}